STARLINK-30079
1 56706U 23067U   26092.83335647  .00008976  00000+0  54167-3 0  9995
2 56706  42.9999 142.6582 0001811 268.0522 286.6136 15.10923415  5831
